NORAD_CAT_ID,OBJECT_NAME,OBJECT_TYPE,EPOCH,MEAN_MOTION,ECCENTRICITY,INCLINATION,RA_OF_ASC_NODE,ARG_OF_PERICENTER,MEAN_ANOMALY,BSTAR,MEAN_MOTION_DOT,MEAN_MOTION_DDOT,TLE_LINE0,TLE_LINE1,TLE_LINE2,SEMIMAJOR_AXIS,PERIOD,APOGEE,PERIGEE,DECAYED
54089.0,STARLINK-5143,PAYLOAD,2023-07-19 16:23:21,15.08824925,0.0001269,53.2192,341.5869,112.2387,247.8739,0.00029932,4.477e-05,0.0,0 STARLINK-5143,1 54089U 22136AQ  23200.68289079  .00004477  00000-0  29932-3 0  9996,2 54089  53.2192 341.5869 0001269 112.2387 247.8739 15.08824925 41928,6917.926,95.439,540.669,538.914,0.0
54089.0,STARLINK-5143,PAYLOAD,2023-07-20 17:49:32,15.08853728,0.0001114,53.2184,336.8293,104.1206,255.991,0.00091659,0.00014335,0.0,0 STARLINK-5143,1 54089U 22136AQ  23201.74273156  .00014335  00000-0  91659-3 0  9992,2 54089  53.2184 336.8293 0001114 104.1206 255.9910 15.08853728 42088,6917.838,95.437,540.474,538.933,0.0
54089.0,STARLINK-5143,PAYLOAD,2023-07-21 17:40:19,15.08855745,0.0001442,53.218,332.3704,76.7902,283.3251,0.00069011,0.00010717,0.0,0 STARLINK-5143,1 54089U 22136AQ  23202.73633111  .00010717  00000-0  69011-3 0  9990,2 54089  53.2180 332.3704 0001442  76.7902 283.3251 15.08855745 42234,6917.832,95.437,540.695,538.7,0.0
54089.0,STARLINK-5143,PAYLOAD,2023-07-24 07:40:21,15.08843676,0.0001471,53.2161,320.7749,64.9161,295.1983,0.00019843,2.872e-05,0.0,0 STARLINK-5143,1 54089U 22136AQ  23205.31969478  .00002872  00000-0  19843-3 0  9996,2 54089  53.2161 320.7749 0001471  64.9161 295.1983 15.08843676 42155,6917.869,95.437,540.752,538.717,0.0
54089.0,STARLINK-5143,PAYLOAD,2023-07-25 12:17:18,15.08837598,0.0001286,53.2134,315.4194,79.0283,281.0854,-6.0707e-05,-1.254e-05,0.0,0 STARLINK-5143,1 54089U 22136AQ  23206.51201542 -.00001254  00000-0 -60707-4 0  9991,2 54089  53.2134 315.4194 0001286  79.0283 281.0854 15.08837598 42333,6917.888,95.438,540.642,538.863,0.0
54089.0,STARLINK-5143,PAYLOAD,2023-07-26 08:57:17,15.08876751,0.0001252,53.2155,311.5552,96.6617,263.4517,-0.00094494,-0.0001531,0.0,0 STARLINK-5143,1 54089U 22136AQ  23207.37311588 -.00015310  00000-0 -94494-3 0  9995,2 54089  53.2155 311.5552 0001252  96.6617 263.4517 15.08876751 42468,6917.768,95.435,540.499,538.767,0.0
54089.0,STARLINK-5143,PAYLOAD,2023-07-26 16:54:14,15.08850029,0.0001704,53.2139,310.0702,60.7024,299.4138,0.00020667,3.004e-05,0.0,0 STARLINK-5143,1 54089U 22136AQ  23207.70433153  .00003004  00000-0  20667-3 0  9991,2 54089  53.2139 310.0702 0001704  60.7024 299.4138 15.08850029 42982,6917.85,95.437,540.894,538.536,0.0
54089.0,STARLINK-5143,PAYLOAD,2023-07-27 07:12:42,15.0883787,0.0001057,53.2157,307.3922,92.4905,267.6208,9.6392e-05,1.247e-05,0.0,0 STARLINK-5143,1 54089U 22136AQ  23208.30049582  .00001247  00000-0  96392-4 0  9993,2 54089  53.2157 307.3922 0001057  92.4905 267.6208 15.08837870 43071,6917.887,95.438,540.483,539.021,0.0
54089.0,STARLINK-5143,PAYLOAD,2023-07-27 18:20:24,15.08841899,0.0001371,53.2161,305.3107,77.0129,283.1017,0.00010751,1.424e-05,0.0,0 STARLINK-5143,1 54089U 22136AQ  23208.76417484  .00001424  00000-0  10751-3 0  9994,2 54089  53.2161 305.3107 0001371  77.0129 283.1017 15.08841899 42677,6917.875,95.437,540.688,538.791,0.0
54089.0,STARLINK-5143,PAYLOAD,2023-07-27 23:06:34,15.08826096,0.0002737,53.2151,304.4148,75.8469,284.2827,-0.00018563,-3.241e-05,0.0,0 STARLINK-5143,1 54089U 22136AQ  23208.96290443 -.00003241  00000-0 -18563-3 0  9990,2 54089  53.2151 304.4148 0002737  75.8469 284.2827 15.08826096 43170,6917.923,95.438,541.681,537.894,0.0
54089.0,STARLINK-5143,PAYLOAD,2023-07-28 07:03:30,15.08827784,7.2e-05,53.2166,302.931,107.791,252.3161,-0.00029176,-4.926e-05,0.0,0 STARLINK-5143,1 54089U 22136AQ  23209.29409765 -.00004926  00000-0 -29176-3 0  9999,2 54089  53.2166 302.9310 0000720 107.7910 252.3161 15.08827784 42751,6917.918,95.438,540.281,539.285,0.0
54089.0,STARLINK-5143,PAYLOAD,2023-07-28 16:35:48,15.08840172,0.0001119,53.2162,301.1463,94.6029,265.5091,6.2931e-05,7.14e-06,0.0,0 STARLINK-5143,1 54089U 22136AQ  23209.69153588  .00000714  00000-0  62931-4 0  9998,2 54089  53.2162 301.1463 0001119  94.6029 265.5091 15.08840172 43288,6917.88,95.438,540.519,538.971,0.0
54089.0,STARLINK-5143,PAYLOAD,2023-07-29 10:05:03,15.0883578,0.0001698,53.2188,297.872,84.2966,275.822,0.00055326,8.527e-05,0.0,0 STARLINK-5143,1 54089U 22136AQ  23210.42018490  .00008527  00000-0  55326-3 0  9992,2 54089  53.2188 297.8720 0001698  84.2966 275.8220 15.08835780 43399,6917.893,95.438,540.933,538.584,0.0
54089.0,STARLINK-5143,PAYLOAD,2023-07-29 18:01:59,15.08851387,0.0001459,53.2177,296.3858,82.9457,277.1701,0.00049096,7.537e-05,0.0,0 STARLINK-5143,1 54089U 22136AQ  23210.75137817  .00007537  00000-0  49096-3 0  9990,2 54089  53.2177 296.3858 0001459  82.9457 277.1701 15.08851387 43444,6917.846,95.437,540.72,538.701,0.0
54089.0,STARLINK-5143,PAYLOAD,2023-07-30 09:55:50,15.08838971,0.000114,53.2154,293.4175,69.6709,290.4406,0.0001238,1.683e-05,0.0,0 STARLINK-5143,1 54089U 22136AQ  23211.41378199  .00001683  00000-0  12380-3 0  9996,2 54089  53.2154 293.4175 0001140  69.6709 290.4406 15.08838971 43543,6917.884,95.438,540.537,538.96,0.0
54089.0,STARLINK-5143,PAYLOAD,2023-07-30 14:41:59,15.08850125,0.0001222,53.2155,292.5235,86.2851,273.8281,0.00044024,6.727e-05,0.0,0 STARLINK-5143,1 54089U 22136AQ  23211.61249908  .00006727  00000-0  44024-3 0  9997,2 54089  53.2155 292.5235 0001222  86.2851 273.8281 15.08850125 43579,6917.849,95.437,540.56,538.869,0.0
54089.0,STARLINK-5143,PAYLOAD,2023-07-30 22:38:55,15.08837793,0.0001229,53.2153,291.0373,78.7472,281.3658,0.0001884,2.712e-05,0.0,0 STARLINK-5143,1 54089U 22136AQ  23211.94370185  .00002712  00000-0  18840-3 0  9992,2 54089  53.2153 291.0373 0001229  78.7472 281.3658 15.08837793 43620,6917.887,95.438,540.602,538.902,0.0
54089.0,STARLINK-5143,PAYLOAD,2023-07-31 14:32:46,15.08850738,0.0001242,53.2155,288.0632,79.1846,280.9286,0.00017081,2.432e-05,0.0,0 STARLINK-5143,1 54089U 22136AQ  23212.60609805  .00002432  00000-0  17081-3 0  9995,2 54089  53.2155 288.0632 0001242  79.1846 280.9286 15.08850738 43728,6917.848,95.437,540.572,538.853,0.0
54089.0,STARLINK-5143,PAYLOAD,2023-08-01 14:23:33,15.08846669,0.0001349,53.2162,283.6017,98.8308,261.2837,0.00014486,2.019e-05,0.0,0 STARLINK-5143,1 54089U 22136AQ  23213.59969891  .00002019  00000-0  14486-3 0  9995,2 54089  53.2162 283.6017 0001349  98.8308 261.2837 15.08846669 43871,6917.86,95.437,540.658,538.792,0.0
54089.0,STARLINK-5143,PAYLOAD,2023-08-02 07:52:48,15.08838379,0.0001395,53.2152,280.3309,96.0498,264.0653,5.7761e-05,6.31e-06,0.0,0 STARLINK-5143,1 54089U 22136AQ  23214.32834352  .00000631  00000-0  57761-4 0  9992,2 54089  53.2152 280.3309 0001395  96.0498 264.0653 15.08838379 43987,6917.885,95.438,540.715,538.785,0.0
54089.0,STARLINK-5143,PAYLOAD,2023-08-03 10:54:21,15.08848122,0.0001258,53.2157,275.2762,91.0939,269.0197,9.5456e-05,1.232e-05,0.0,0 STARLINK-5143,1 54089U 22136AQ  23215.45441984  .00001232  00000-0  95456-4 0  9993,2 54089  53.2157 275.2762 0001258  91.0939 269.0197 15.08848122 44156,6917.856,95.437,540.591,538.85,0.0
54089.0,STARLINK-5143,PAYLOAD,2023-08-04 10:45:09,15.08837379,0.0001255,53.2153,270.816,92.7825,267.331,8.8464e-05,1.12e-05,0.0,0 STARLINK-5143,1 54089U 22136AQ  23216.44802735  .00001120  00000-0  88464-4 0  9995,2 54089  53.2153 270.8160 0001255  92.7825 267.3310 15.08837379 44301,6917.888,95.438,540.622,538.885,0.0
54089.0,STARLINK-5143,PAYLOAD,2023-08-05 12:11:19,15.08850671,0.0001198,53.2143,266.0567,90.2829,269.8301,0.00030842,4.625e-05,0.0,0 STARLINK-5143,1 54089U 22136AQ  23217.50786330  .00004625  00000-0  30842-3 0  9994,2 54089  53.2143 266.0567 0001198  90.2829 269.8301 15.08850671 44465,6917.848,95.437,540.542,538.884,0.0
54089.0,STARLINK-5143,PAYLOAD,2023-08-06 10:26:43,15.08842483,0.0001361,53.2143,261.8933,96.3523,263.7624,0.00012031,1.627e-05,0.0,0 STARLINK-5143,1 54089U 22136AQ  23218.43522531  .00001627  00000-0  12031-3 0  9997,2 54089  53.2143 261.8933 0001361  96.3523 263.7624 15.08842483 44604,6917.873,95.437,540.679,538.796,0.0
54089.0,STARLINK-5143,PAYLOAD,2023-08-07 08:42:07,15.08838923,0.0001241,53.2143,257.7302,81.6539,278.4594,-8.528e-06,-4.24e-06,0.0,0 STARLINK-5143,1 54089U 22136AQ  23219.36258906 -.00000424  00000-0 -85280-5 0  9996,2 54089  53.2143 257.7302 0001241  81.6539 278.4594 15.08838923 44747,6917.884,95.438,540.607,538.89,0.0
54089.0,STARLINK-5143,PAYLOAD,2023-08-08 08:32:54,15.08848031,0.0001186,53.2149,253.2691,83.5222,276.5905,0.00015202,2.133e-05,0.0,0 STARLINK-5143,1 54089U 22136AQ  23220.35618479  .00002133  00000-0  15202-3 0  9994,2 54089  53.2149 253.2691 0001186  83.5222 276.5905 15.08848031 44895,6917.856,95.437,540.541,538.9,0.0
54089.0,STARLINK-5143,PAYLOAD,2023-08-09 08:23:41,15.08840359,0.0001423,53.2139,248.8079,90.0808,270.0347,8.3267e-05,1.038e-05,0.0,0 STARLINK-5143,1 54089U 22136AQ  23221.34979014  .00001038  00000-0  83267-4 0  9999,2 54089  53.2139 248.8079 0001423  90.0808 270.0347 15.08840359 45043,6917.879,95.438,540.729,538.76,0.0
54089.0,STARLINK-5143,PAYLOAD,2023-08-09 13:09:51,15.08826537,0.000127,53.2147,247.9157,88.5962,271.5175,0.0003142,4.714e-05,0.0,0 STARLINK-5143,1 54089U 22136AQ  23221.54851380  .00004714  00000-0  31420-3 0  9993,2 54089  53.2147 247.9157 0001270  88.5962 271.5175 15.08826537 45072,6917.922,95.438,540.665,538.908,0.0
54089.0,STARLINK-5143,PAYLOAD,2023-08-10 08:14:28,15.08840815,0.0001308,53.215,244.3471,89.8036,270.3106,5.8561e-06,-1.95e-06,0.0,0 STARLINK-5143,1 54089U 22136AQ  23222.34339089 -.00000195  00000-0  58561-5 0  9996,2 54089  53.2150 244.3471 0001308  89.8036 270.3106 15.08840815 45193,6917.878,95.438,540.648,538.838,0.0
54089.0,STARLINK-5143,PAYLOAD,2023-08-11 17:37:34,15.08836349,0.000124,53.2147,238.1023,87.511,272.6024,1.5951e-05,-3.4e-07,0.0,0 STARLINK-5143,1 54089U 22136AQ  23223.73443238 -.00000034  00000-0  15951-4 0  9999,2 54089  53.2147 238.1023 0001240  87.5110 272.6024 15.08836349 45401,6917.892,95.438,540.614,538.899,0.0
